NORAD_CAT_ID,OBJECT_NAME,OBJECT_TYPE,EPOCH,MEAN_MOTION,ECCENTRICITY,INCLINATION,RA_OF_ASC_NODE,ARG_OF_PERICENTER,MEAN_ANOMALY,BSTAR,MEAN_MOTION_DOT,MEAN_MOTION_DDOT,TLE_LINE0,TLE_LINE1,TLE_LINE2,SEMIMAJOR_AXIS,PERIOD,APOGEE,PERIGEE,DECAYED
52860.0,STARLINK-4191,PAYLOAD,2024-03-24 22:54:21,15.08854823,0.0001192,53.2185,352.6894,109.7907,250.3213,0.00036694,5.559e-05,0.0,0 STARLINK-4191,1 52860U 22062AG  24084.95440988  .00005559  00000-0  36694-3 0  9993,2 52860  53.2185 352.6894 0001192 109.7907 250.3213 15.08854823 98029,6917.835,95.437,540.525,538.875,0.0
52860.0,STARLINK-4191,PAYLOAD,2024-03-25 21:09:46,15.08813715,0.0001253,53.2195,348.5293,90.6217,269.4918,-0.000367,-6.12e-05,0.0,0 STARLINK-4191,1 52860U 22062AG  24085.88178578 -.00006120  00000-0 -36700-3 0  9994,2 52860  53.2195 348.5293 0001253  90.6217 269.4918 15.08813715 98654,6917.961,95.439,540.693,538.959,0.0
52860.0,STARLINK-4191,PAYLOAD,2024-03-25 22:45:09,15.08815551,0.0001399,53.2187,348.2308,99.5641,260.5509,-0.00026625,-4.52e-05,0.0,0 STARLINK-4191,1 52860U 22062AG  24085.94802629 -.00004520  00000-0 -26625-3 0  9999,2 52860  53.2187 348.2308 0001399  99.5641 260.5509 15.08815551 98174,6917.955,95.439,540.788,538.852,0.0
52860.0,STARLINK-4191,PAYLOAD,2024-03-26 09:52:52,15.08831176,0.0001236,53.2188,346.1502,64.1252,295.9867,0.00034905,5.27e-05,0.0,0 STARLINK-4191,1 52860U 22062AG  24086.41171496  .00005270  00000-0  34905-3 0  9994,2 52860  53.2188 346.1502 0001236  64.1252 295.9867 15.08831176 98736,6917.907,95.438,540.627,538.917,0.0
52860.0,STARLINK-4191,PAYLOAD,2024-03-26 22:35:57,15.08844407,7.67e-05,53.2167,343.7706,68.9128,291.1947,0.00085482,0.00013344,0.0,0 STARLINK-4191,1 52860U 22062AG  24086.94163363  .00013344  00000-0  85482-3 0  9993,2 52860  53.2167 343.7706 0000767  68.9128 291.1947 15.08844407 98327,6917.867,95.437,540.263,539.201,0.0
52860.0,STARLINK-4191,PAYLOAD,2024-03-27 00:11:20,15.0885184,7.79e-05,53.2167,343.4737,86.9756,273.1325,0.0010887,0.00017087,0.0,0 STARLINK-4191,1 52860U 22062AG  24087.00787168  .00017087  00000-0  10887-2 0  9990,2 52860  53.2167 343.4737 0000779  86.9756 273.1325 15.08851840 98822,6917.844,95.437,540.248,539.17,0.0
52860.0,STARLINK-4191,PAYLOAD,2024-03-27 09:43:38,15.08857669,0.0001066,53.2179,341.6901,96.774,263.3373,0.00050686,7.792e-05,0.0,0 STARLINK-4191,1 52860U 22062AG  24087.40530838  .00007792  00000-0  50686-3 0  9998,2 52860  53.2179 341.6901 0001066  96.7740 263.3373 15.08857669 98391,6917.826,95.436,540.429,538.954,0.0
52860.0,STARLINK-4191,PAYLOAD,2024-03-27 20:51:20,15.08853883,0.0001663,53.2189,339.6099,99.5383,260.5797,7.9356e-05,9.76e-06,0.0,0 STARLINK-4191,1 52860U 22062AG  24087.86898657  .00000976  00000-0  79356-4 0  9997,2 52860  53.2189 339.6099 0001663  99.5383 260.5797 15.08853883 98959,6917.838,95.437,540.853,538.553,0.0
52860.0,STARLINK-4191,PAYLOAD,2024-03-27 22:26:43,15.08854021,0.0001617,53.2194,339.3128,99.4644,260.6531,0.00020543,2.984e-05,0.0,0 STARLINK-4191,1 52860U 22062AG  24087.93522657  .00002984  00000-0  20543-3 0  9993,2 52860  53.2194 339.3128 0001617  99.4644 260.6531 15.08854021 98472,6917.838,95.437,540.821,538.584,0.0
52860.0,STARLINK-4191,PAYLOAD,2024-03-28 09:34:24,15.08861589,0.0001045,53.2172,337.2285,85.9164,274.1948,0.00030635,4.594e-05,0.0,0 STARLINK-4191,1 52860U 22062AG  24088.39889948  .00004594  00000-0  30635-3 0  9995,2 52860  53.2172 337.2285 0001045  85.9164 274.1948 15.08861589 98548,6917.814,95.436,540.402,538.956,0.0
52860.0,STARLINK-4191,PAYLOAD,2024-03-28 22:17:30,15.0884516,0.0001838,53.2163,334.8485,79.8901,280.2298,6.2205e-05,7.02e-06,0.0,0 STARLINK-4191,1 52860U 22062AG  24088.92882369  .00000702  00000-0  62205-4 0  9990,2 52860  53.2163 334.8485 0001838  79.8901 280.2298 15.08845160 98626,6917.865,95.437,541.001,538.458,0.0
52860.0,STARLINK-4191,PAYLOAD,2024-03-28 23:52:53,15.08848257,0.0001165,53.2172,334.5515,82.9351,277.1773,3.7801e-05,3.14e-06,0.0,0 STARLINK-4191,1 52860U 22062AG  24088.99506058  .00000314  00000-0  37801-4 0  9998,2 52860  53.2172 334.5515 0001165  82.9351 277.1773 15.08848257 99123,6917.855,95.437,540.526,538.914,0.0
52860.0,STARLINK-4191,PAYLOAD,2024-03-29 09:25:12,15.08843021,0.0001128,53.2173,332.768,78.5618,281.55,3.8356e-05,3.23e-06,0.0,0 STARLINK-4191,1 52860U 22062AG  24089.39250203  .00000323  00000-0  38356-4 0  9997,2 52860  53.2173 332.7680 0001128  78.5618 281.5500 15.08843021 98695,6917.871,95.437,540.516,538.956,0.0
52860.0,STARLINK-4191,PAYLOAD,2024-03-29 22:08:17,15.0884179,0.0001208,53.2183,330.3888,79.7968,280.316,3.2313e-05,2.26e-06,0.0,0 STARLINK-4191,1 52860U 22062AG  24089.92242389  .00000226  00000-0  32313-4 0  9991,2 52860  53.2183 330.3888 0001208  79.7968 280.3160 15.08841790 98779,6917.875,95.437,540.576,538.904,0.0
52860.0,STARLINK-4191,PAYLOAD,2024-03-30 01:19:03,15.08843542,0.0001019,53.2171,329.791,75.3741,284.7364,0.00029211,4.365e-05,0.0,0 STARLINK-4191,1 52860U 22062AG  24090.05490337  .00004365  00000-0  29211-3 0  9995,2 52860  53.2171 329.7910 0001019  75.3741 284.7364 15.08843542 99283,6917.87,95.437,540.439,539.03,0.0
52860.0,STARLINK-4191,PAYLOAD,2024-03-30 09:15:59,15.08839823,9.24e-05,53.2182,328.3083,78.8568,281.2528,4.0669e-05,3.6e-06,0.0,0 STARLINK-4191,1 52860U 22062AG  24090.38610470  .00000360  00000-0  40669-4 0  9995,2 52860  53.2182 328.3083 0000924  78.8568 281.2528 15.08839823 98842,6917.881,95.438,540.385,539.107,0.0
52860.0,STARLINK-4191,PAYLOAD,2024-03-30 21:59:04,15.08838846,0.0001249,53.2189,325.9279,87.1751,272.9384,0.00015001,2.1e-05,0.0,0 STARLINK-4191,1 52860U 22062AG  24090.91602931  .00002100  00000-0  15001-3 0  9992,2 52860  53.2189 325.9279 0001249  87.1751 272.9384 15.08838846 99412,6917.884,95.438,540.613,538.885,0.0
52860.0,STARLINK-4191,PAYLOAD,2024-03-31 09:06:46,15.08847653,0.0001364,53.2171,323.8465,77.7847,282.3298,0.00031433,4.719e-05,0.0,0 STARLINK-4191,1 52860U 22062AG  24091.37970522  .00004719  00000-0  31433-3 0  9992,2 52860  53.2171 323.8465 0001364  77.7847 282.3298 15.08847653 98993,6917.857,95.437,540.666,538.778,0.0
52860.0,STARLINK-4191,PAYLOAD,2024-03-31 21:49:51,15.08856792,0.000121,53.2182,321.466,93.204,266.909,0.00045278,6.929e-05,0.0,0 STARLINK-4191,1 52860U 22062AG  24091.90962033  .00006929  00000-0  45278-3 0  9996,2 52860  53.2182 321.4660 0001210  93.2040 266.9090 15.08856792 99560,6917.829,95.436,540.531,538.857,0.0
52860.0,STARLINK-4191,PAYLOAD,2024-04-01 15:19:05,15.08844008,0.0001165,53.2174,318.1957,86.907,273.2055,0.00012477,1.699e-05,0.0,0 STARLINK-4191,1 52860U 22062AG  24092.63826362  .00001699  00000-0  12477-3 0  9995,2 52860  53.2174 318.1957 0001165  86.9070 273.2055 15.08844008 99181,6917.868,95.437,540.539,538.927,0.0
52860.0,STARLINK-4191,PAYLOAD,2024-04-01 21:40:38,15.08844861,0.0001022,53.2173,317.0061,96.6326,263.4782,0.00013568,1.873e-05,0.0,0 STARLINK-4191,1 52860U 22062AG  24092.90322194  .00001873  00000-0  13568-3 0  9995,2 52860  53.2173 317.0061 0001022  96.6326 263.4782 15.08844861 99712,6917.866,95.437,540.438,539.024,0.0
52860.0,STARLINK-4191,PAYLOAD,2024-04-02 21:31:25,15.0883849,0.0001078,53.2171,312.5494,100.2104,259.901,0.00011061,1.473e-05,0.0,0 STARLINK-4191,1 52860U 22062AG  24093.89682653  .00001473  00000-0  11061-3 0  9995,2 52860  53.2171 312.5494 0001078 100.2104 259.9010 15.08838490 99868,6917.885,95.438,540.496,539.004,0.0
52860.0,STARLINK-4191,PAYLOAD,2024-04-03 15:00:40,15.08836913,0.0001196,53.2171,309.2785,103.5318,256.5807,0.00013635,1.883e-05,0.0,0 STARLINK-4191,1 52860U 22062AG  24094.62546925  .00001883  00000-0  13635-3 0  9992,2 52860  53.2171 309.2785 0001196 103.5318 256.5807 15.08836913 99481,6917.89,95.438,540.582,538.927,0.0
52860.0,STARLINK-4191,PAYLOAD,2024-04-03 21:22:13,15.088388,0.0001194,53.2171,308.0892,103.847,256.2655,0.00016193,2.29e-05,0.0,0 STARLINK-4191,1 52860U 22062AG  24094.89042925  .00002290  00000-0  16193-3 0  9997,2 52860  53.2171 308.0892 0001194 103.8470 256.2655 15.08838800 99527,6917.884,95.438,540.575,538.923,0.0
52860.0,STARLINK-4191,PAYLOAD,2024-04-03 22:57:36,15.08839652,0.0001205,53.2171,307.7917,102.9654,257.1472,0.00016474,2.335e-05,0.0,0 STARLINK-4191,1 52860U 22062AG  24094.95666886  .00002335  00000-0  16474-3 0  9994,2 52860  53.2171 307.7917 0001205 102.9654 257.1472 15.08839652100029,6917.881,95.438,540.58,538.913,0.0
52860.0,STARLINK-4191,PAYLOAD,2024-04-04 06:54:31,15.08839155,0.0001185,53.2171,306.3049,101.7572,258.3553,0.00013114,1.8e-05,0.0,0 STARLINK-4191,1 52860U 22062AG  24095.28786927  .00001800  00000-0  13114-3 0  9994,2 52860  53.2171 306.3049 0001185 101.7572 258.3553 15.08839155 99582,6917.883,95.438,540.568,538.928,0.0
52860.0,STARLINK-4191,PAYLOAD,2024-04-04 21:13:00,15.08840028,0.0001207,53.2177,303.6283,96.8623,263.2506,9.662e-05,1.25e-05,0.0,0 STARLINK-4191,1 52860U 22062AG  24095.88402994  .00001250  00000-0  96620-4 0  9992,2 52860  53.2177 303.6283 0001207  96.8623 263.2506 15.08840028 99678,6917.88,95.438,540.58,538.91,0.0
52860.0,STARLINK-4191,PAYLOAD,2024-04-05 13:06:51,15.08844247,0.0001176,53.2173,300.6543,85.4567,274.6559,0.00014451,2.013e-05,0.0,0 STARLINK-4191,1 52860U 22062AG  24096.54642778  .00002013  00000-0  14451-3 0  9991,2 52860  53.2173 300.6543 0001176  85.4567 274.6559 15.08844247100265,6917.867,95.437,540.546,538.919,0.0
52860.0,STARLINK-4191,PAYLOAD,2024-04-05 21:03:46,15.08849684,0.0001174,53.2168,299.1671,83.9482,276.1644,0.00018829,2.711e-05,0.0,0 STARLINK-4191,1 52860U 22062AG  24096.87762431  .00002711  00000-0  18829-3 0  9994,2 52860  53.2168 299.1671 0001174  83.9482 276.1644 15.08849684 99821,6917.851,95.437,540.528,538.904,0.0
52860.0,STARLINK-4191,PAYLOAD,2024-04-06 12:57:38,15.08843586,0.0001164,53.2161,296.1944,85.0335,275.079,0.00011213,1.497e-05,0.0,0 STARLINK-4191,1 52860U 22062AG  24097.54002639  .00001497  00000-0  11213-3 0  9996,2 52860  53.2161 296.1944 0001164  85.0335 275.0790 15.08843586 99929,6917.869,95.437,540.54,538.929,0.0
